[{"OBJECT_NAME":"STARLINK-35043","OBJECT_ID":"2025-194C","EPOCH":"2026-03-09T13:09:26.133696","MEAN_MOTION":15.01266309,"ECCENTRICITY":0.00022628,"INCLINATION":97.6045,"RA_OF_ASC_NODE":285.0493,"ARG_OF_PERICENTER":74.6485,"MEAN_ANOMALY":285.4989,"EPHEMERIS_TYPE":0,"CLASSIFICATION_TYPE":"U","NORAD_CAT_ID":65436,"ELEMENT_SET_NO":999,"REV_AT_EPOCH":2967,"BSTAR":0.00026824056,"MEAN_MOTION_DOT":3.389e-5,"MEAN_MOTION_DDOT":0},{"OBJECT_NAME":"COSMOS 397 DEB","OBJECT_ID":"1971-015BE","EPOCH":"2026-03-09T06:01:25.739040","MEAN_MOTION":13.01060544,"ECCENTRICITY":0.09136727,"INCLINATION":65.7314,"RA_OF_ASC_NODE":123.9789,"ARG_OF_PERICENTER":341.9709,"MEAN_ANOMALY":15.0776,"EPHEMERIS_TYPE":0,"CLASSIFICATION_TYPE":"U","NORAD_CAT_ID":5277,"ELEMENT_SET_NO":999,"REV_AT_EPOCH":24893,"BSTAR":0.00026116289,"MEAN_MOTION_DOT":5.46e-6,"MEAN_MOTION_DDOT":0}]
